NORAD_CAT_ID,OBJECT_NAME,OBJECT_TYPE,EPOCH,MEAN_MOTION,ECCENTRICITY,INCLINATION,RA_OF_ASC_NODE,ARG_OF_PERICENTER,MEAN_ANOMALY,BSTAR,MEAN_MOTION_DOT,MEAN_MOTION_DDOT,TLE_LINE0,TLE_LINE1,TLE_LINE2,SEMIMAJOR_AXIS,PERIOD,APOGEE,PERIGEE,DECAYED
56480.0,STARLINK-6214,PAYLOAD,2024-07-30 23:08:57,14.99294365,0.0003215,70.0,163.7945,259.8157,100.264,0.0045716,0.00056286,0.0,0 STARLINK-6214,1 56480U 23064AJ  24212.96455503  .00056286  00000-0  45716-2 0  9998,2 56480  70.0000 163.7945 0003215 259.8157 100.2640 14.99294365 67856,6947.212,96.045,571.311,566.844,0.0
56480.0,STARLINK-6214,PAYLOAD,2024-07-31 05:33:14,14.99321759,0.0003222,69.9999,163.1206,258.6,101.4797,0.004619,0.00056916,0.0,0 STARLINK-6214,1 56480U 23064AJ  24213.23142136  .00056916  00000-0  46190-2 0  9991,2 56480  69.9999 163.1206 0003222 258.6000 101.4797 14.99321759 68255,6947.128,96.043,571.231,566.754,0.0
56480.0,STARLINK-6214,PAYLOAD,2024-07-31 13:33:35,14.99352785,0.0003199,70.0001,162.2782,258.023,102.0571,0.0042433,0.00052287,0.0,0 STARLINK-6214,1 56480U 23064AJ  24213.56499682  .00052287  00000-0  42433-2 0  9991,2 56480  70.0001 162.2782 0003199 258.0230 102.0571 14.99352785 67948,6947.032,96.041,571.119,566.674,0.0
56480.0,STARLINK-6214,PAYLOAD,2024-07-31 23:09:59,14.99402837,0.0003127,70.0002,161.2677,257.5163,102.5647,0.0049035,0.00060587,0.0,0 STARLINK-6214,1 56480U 23064AJ  24213.96527768  .00060587  00000-0  49035-2 0  9999,2 56480  70.0002 161.2677 0003127 257.5163 102.5647 14.99402837 68002,6946.877,96.038,570.914,566.57,0.0
56480.0,STARLINK-6214,PAYLOAD,2024-08-01 05:34:15,14.99430451,0.0003175,70.0001,160.5932,256.4464,103.6343,0.0061428,0.00076147,0.0,0 STARLINK-6214,1 56480U 23064AJ  24214.23212576  .00076147  00000-0  61428-2 0  9997,2 56480  70.0001 160.5932 0003175 256.4464 103.6343 14.99430451 68404,6946.792,96.036,570.863,566.451,0.0
56480.0,STARLINK-6214,PAYLOAD,2024-08-01 13:34:34,14.99458345,0.0003135,70.0004,159.7505,258.7729,101.3078,0.0044691,0.00055249,0.0,0 STARLINK-6214,1 56480U 23064AJ  24214.56567787  .00055249  00000-0  44691-2 0  9993,2 56480  70.0004 159.7505 0003135 258.7729 101.3078 14.99458345 68095,6946.706,96.035,570.749,566.393,0.0
56480.0,STARLINK-6214,PAYLOAD,2024-08-01 21:34:52,14.99490285,0.0003089,70.0003,158.9076,261.4917,98.5893,0.0041277,0.00051033,0.0,0 STARLINK-6214,1 56480U 23064AJ  24214.89922374  .00051033  00000-0  41277-2 0  9990,2 56480  70.0003 158.9076 0003089 261.4917  98.5893 14.99490285 68503,6946.607,96.033,570.618,566.326,0.0
56480.0,STARLINK-6214,PAYLOAD,2024-08-01 23:10:56,14.99497502,0.0003097,70.0003,158.7395,260.7246,99.3564,0.0040251,0.00049762,0.0,0 STARLINK-6214,1 56480U 23064AJ  24214.96593174  .00049762  00000-0  40251-2 0  9997,2 56480  70.0003 158.7395 0003097 260.7246  99.3564 14.99497502 68155,6946.585,96.032,570.601,566.298,0.0
56480.0,STARLINK-6214,PAYLOAD,2024-08-02 13:35:27,14.99559395,0.0003166,70.0005,157.223,259.0042,101.0761,0.0037357,0.00046229,0.0,0 STARLINK-6214,1 56480U 23064AJ  24215.56628910  .00046229  00000-0  37357-2 0  9999,2 56480  70.0005 157.2230 0003166 259.0042 101.0761 14.99559395 68240,6946.394,96.028,570.458,566.059,0.0
56480.0,STARLINK-6214,PAYLOAD,2024-08-02 21:35:43,14.99595466,0.0003101,70.0007,156.3813,258.678,101.4031,0.0043915,0.00054476,0.0,0 STARLINK-6214,1 56480U 23064AJ  24215.89981184  .00054476  00000-0  43915-2 0  9990,2 56480  70.0007 156.3813 0003101 258.6780 101.4031 14.99595466 68650,6946.282,96.026,570.301,565.993,0.0
56480.0,STARLINK-6214,PAYLOAD,2024-08-03 13:36:14,14.99665067,0.0003043,70.0011,154.6939,255.7117,104.3705,0.004133,0.00051333,0.0,0 STARLINK-6214,1 56480U 23064AJ  24216.56683113  .00051333  00000-0  41330-2 0  9994,2 56480  70.0011 154.6939 0003043 255.7117 104.3705 14.99665067 68398,6946.067,96.021,570.046,565.819,0.0
56480.0,STARLINK-6214,PAYLOAD,2024-08-03 21:36:28,14.99705483,0.0003022,70.001,153.8522,256.7311,103.3511,0.0048262,0.00060097,0.0,0 STARLINK-6214,1 56480U 23064AJ  24216.90032981  .00060097  00000-0  48262-2 0  9991,2 56480  70.0010 153.8522 0003022 256.7311 103.3511 14.99705483 68447,6945.943,96.019,569.907,565.709,0.0
56480.0,STARLINK-6214,PAYLOAD,2024-08-04 04:00:39,14.99735245,0.0003,70.0012,153.1798,259.7262,100.3559,0.0046495,0.0005792,0.0,0 STARLINK-6214,1 56480U 23064AJ  24217.16712270  .00057920  00000-0  46495-2 0  9993,2 56480  70.0012 153.1798 0003000 259.7262 100.3559 14.99735245 68843,6945.851,96.017,569.799,565.632,0.0
56480.0,STARLINK-6214,PAYLOAD,2024-08-04 13:36:55,14.99776253,0.0002946,70.0014,152.168,258.0519,102.031,0.0046281,0.00057713,0.0,0 STARLINK-6214,1 56480U 23064AJ  24217.56730348  .00057713  00000-0  46281-2 0  9996,2 56480  70.0014 152.1680 0002946 258.0519 102.0310 14.99776253 68544,6945.724,96.014,569.635,565.543,0.0
56480.0,STARLINK-6214,PAYLOAD,2024-08-04 23:13:09,14.99854199,0.0002994,70.0015,151.1571,256.4493,103.6334,0.0079523,0.00100039,0.0,0 STARLINK-6214,1 56480U 23064AJ  24217.96747047  .00100039  00000-0  79523-2 0  9999,2 56480  70.0015 151.1571 0002994 256.4493 103.6334 14.99854199 68605,6945.483,96.009,569.428,565.269,0.0
56480.0,STARLINK-6214,PAYLOAD,2024-08-05 05:37:18,14.99837901,0.0003016,70.0014,150.4833,257.5561,102.5261,0.0038848,0.00048443,0.0,0 STARLINK-6214,1 56480U 23064AJ  24218.23424652  .00048443  00000-0  38848-2 0  9999,2 56480  70.0014 150.4833 0003016 257.5561 102.5261 14.99837901 69005,6945.534,96.01,569.494,565.304,0.0
56480.0,STARLINK-6214,PAYLOAD,2024-08-05 23:13:42,14.99908651,0.0002998,70.0015,148.6293,255.8733,104.2094,0.0033629,0.00041961,0.0,0 STARLINK-6214,1 56480U 23064AJ  24218.96784840  .00041961  00000-0  33629-2 0  9997,2 56480  70.0015 148.6293 0002998 255.8733 104.2094 14.99908651 68750,6945.315,96.006,569.263,565.098,0.0
56480.0,STARLINK-6214,PAYLOAD,2024-08-06 05:37:49,14.99941793,0.0002967,70.0015,147.9551,255.2121,104.871,0.0036551,0.00045678,0.0,0 STARLINK-6214,1 56480U 23064AJ  24219.23460233  .00045678  00000-0  36551-2 0  9991,2 56480  70.0015 147.9551 0002967 255.2121 104.8710 14.99941793 69150,6945.213,96.004,569.139,565.017,0.0
56480.0,STARLINK-6214,PAYLOAD,2024-08-06 12:01:56,14.99967904,0.0002965,70.0015,147.2809,254.6823,105.4009,0.0034727,0.0004341,0.0,0 STARLINK-6214,1 56480U 23064AJ  24219.50135223  .00043410  00000-0  34727-2 0  9994,2 56480  70.0015 147.2809 0002965 254.6823 105.4009 14.99967904 68833,6945.132,96.002,569.057,564.938,0.0
56480.0,STARLINK-6214,PAYLOAD,2024-08-06 21:38:06,15.00011251,0.0002921,70.0013,146.269,255.6573,104.4263,0.0036732,0.0004599,0.0,0 STARLINK-6214,1 56480U 23064AJ  24219.90146828  .00045990  00000-0  36732-2 0  9994,2 56480  70.0013 146.2690 0002921 255.6573 104.4263 15.00011251 68898,6944.999,95.999,568.892,564.835,0.0
56480.0,STARLINK-6214,PAYLOAD,2024-08-07 04:02:12,15.00048723,0.0002879,70.0013,145.5951,251.2869,108.7978,0.0040576,0.00050898,0.0,0 STARLINK-6214,1 56480U 23064AJ  24220.16820452  .00050898  00000-0  40576-2 0  9990,2 56480  70.0013 145.5951 0002879 251.2869 108.7978 15.00048723 69291,6944.883,95.997,568.747,564.749,0.0
56480.0,STARLINK-6214,PAYLOAD,2024-08-07 05:38:14,15.00055357,0.0002872,70.0013,145.4264,251.5087,108.5761,0.0038368,0.00048113,0.0,0 STARLINK-6214,1 56480U 23064AJ  24220.23488820  .00048113  00000-0  38368-2 0  9990,2 56480  70.0013 145.4264 0002872 251.5087 108.5761 15.00055357 68945,6944.862,95.996,568.722,564.733,0.0
56480.0,STARLINK-6214,PAYLOAD,2024-08-07 20:02:26,15.00111769,0.0002748,70.0013,143.9089,255.0032,105.0824,0.0043327,0.00054473,0.0,0 STARLINK-6214,1 56480U 23064AJ  24220.83502795  .00054473  00000-0  43327-2 0  9991,2 56480  70.0013 143.9089 0002748 255.0032 105.0824 15.00111769 69037,6944.688,95.993,568.462,564.645,0.0
56480.0,STARLINK-6214,PAYLOAD,2024-08-08 05:38:33,15.00162318,0.0002798,70.001,142.8973,251.725,108.3606,0.0044981,0.00056648,0.0,0 STARLINK-6214,1 56480U 23064AJ  24221.23510539  .00056648  00000-0  44981-2 0  9994,2 56480  70.0010 142.8973 0002798 251.7250 108.3606 15.00162318 69090,6944.532,95.99,568.34,564.454,0.0
56480.0,STARLINK-6214,PAYLOAD,2024-08-08 21:38:42,15.00226644,0.0002535,70.0012,141.2115,253.1965,106.8917,0.0043005,0.00054227,0.0,0 STARLINK-6214,1 56480U 23064AJ  24221.90187877  .00054227  00000-0  43005-2 0  9990,2 56480  70.0012 141.2115 0002535 253.1965 106.8917 15.00226644 69553,6944.334,95.985,567.959,564.438,0.0
56480.0,STARLINK-6214,PAYLOAD,2024-08-09 12:02:48,15.00281579,0.0002571,70.001,139.6933,256.7183,103.3691,0.0036683,0.00046255,0.0,0 STARLINK-6214,1 56480U 23064AJ  24222.50194825  .00046255  00000-0  36683-2 0  9994,2 56480  70.0010 139.6933 0002571 256.7183 103.3691 15.00281579 69280,6944.164,95.982,567.815,564.244,0.0
56480.0,STARLINK-6214,PAYLOAD,2024-08-09 21:38:51,15.00326842,0.0002563,70.001,138.6822,256.6537,103.4337,0.004,0.00050537,0.0,0 STARLINK-6214,1 56480U 23064AJ  24222.90198044  .00050537  00000-0  40000-2 0  9991,2 56480  70.0010 138.6822 0002563 256.6537 103.4337 15.00326842 69347,6944.025,95.979,567.669,564.11,0.0
56480.0,STARLINK-6214,PAYLOAD,2024-08-10 04:02:52,15.00354838,0.0002561,70.0007,138.0073,255.3994,104.6882,0.0038146,0.00048209,0.0,0 STARLINK-6214,1 56480U 23064AJ  24223.16866145  .00048209  00000-0  38146-2 0  9995,2 56480  70.0007 138.0073 0002561 255.3994 104.6882 15.00354838 69744,6943.938,95.977,567.582,564.025,0.0
56480.0,STARLINK-6214,PAYLOAD,2024-08-10 21:38:53,15.00430623,0.000262,70.0007,136.1522,252.9803,107.107,0.004007,0.00050765,0.0,0 STARLINK-6214,1 56480U 23064AJ  24223.90201164  .00050765  00000-0  40070-2 0  9990,2 56480  70.0007 136.1522 0002620 252.9803 107.1070 15.00430623 69496,6943.704,95.972,567.389,563.75,0.0
56480.0,STARLINK-6214,PAYLOAD,2024-08-11 12:02:52,15.00497567,0.0002347,70.0008,134.634,255.5371,104.5529,0.0042759,0.000543,0.0,0 STARLINK-6214,1 56480U 23064AJ  24224.50199723  .00054300  00000-0  42759-2 0  9999,2 56480  70.0008 134.6340 0002347 255.5371 104.5529 15.00497567 69943,6943.498,95.968,566.993,563.733,0.0
